{"fetched_at":"2026-07-20T07:40:22.620Z","source":"https://celestrak.org/NORAD/elements/gp.php?GROUP=oneweb&FORMAT=JSON","constellation":"oneweb","records":[{"OBJECT_NAME":"ONEWEB-0656","OBJECT_ID":"2023-029X","EPOCH":"2026-07-19T16:53:51.359424","CLASSIFICATION_TYPE":"U","MEAN_MOTION":13.20769921,"ECCENTRICITY":0.0001786,"INCLINATION":87.9184,"RA_OF_ASC_NODE":267.9512,"ARG_OF_PERICENTER":87.8522,"MEAN_ANOMALY":272.2816,"EPHEMERIS_TYPE":0,"NORAD_CAT_ID":55817,"ELEMENT_SET_NO":999,"REV_AT_EPOCH":16544,"BSTAR":0.00002236,"MEAN_MOTION_DOT":2.2e-7,"MEAN_MOTION_DDOT":0},{"OBJECT_NAME":"ONEWEB-0657","OBJECT_ID":"2023-029Y","EPOCH":"2026-07-19T19:49:13.769184","CLASSIFICATION_TYPE":"U","MEAN_MOTION":13.19727154,"ECCENTRICITY":0.0002047,"INCLINATION":87.9183,"RA_OF_ASC_NODE":298.4749,"ARG_OF_PERICENTER":77.8857,"MEAN_ANOMALY":282.2505,"EPHEMERIS_TYPE":0,"NORAD_CAT_ID":55818,"ELEMENT_SET_NO":999,"REV_AT_EPOCH":16321,"BSTAR":-0.000059678,"MEAN_MOTION_DOT":-1.1e-7,"MEAN_MOTION_DDOT":0},{"OBJECT_NAME":"ONEWEB-0658","OBJECT_ID":"2023-029Z","EPOCH":"2026-07-19T19:42:23.133312","CLASSIFICATION_TYPE":"U","MEAN_MOTION":13.19726593,"ECCENTRICITY":0.00024,"INCLINATION":87.9194,"RA_OF_ASC_NODE":298.4543,"ARG_OF_PERICENTER":105.3019,"MEAN_ANOMALY":254.8379,"EPHEMERIS_TYPE":0,"NORAD_CAT_ID":55819,"ELEMENT_SET_NO":999,"REV_AT_EPOCH":16322,"BSTAR":-0.00011404,"MEAN_MOTION_DOT":-3.3e-7,"MEAN_MOTION_DDOT":0},{"OBJECT_NAME":"ONEWEB-0660","OBJECT_ID":"2023-029AA","EPOCH":"2026-07-19T18:44:54.608640","CLASSIFICATION_TYPE":"U","MEAN_MOTION":13.145022,"ECCENTRICITY":0.0001996,"INCLINATION":87.8974,"RA_OF_ASC_NODE":283.2064,"ARG_OF_PERICENTER":109.6087,"MEAN_ANOMALY":250.5258,"EPHEMERIS_TYPE":0,"NORAD_CAT_ID":55820,"ELEMENT_SET_NO":999,"REV_AT_EPOCH":16368,"BSTAR":-0.00036865,"MEAN_MOTION_DOT":-0.00000124,"MEAN_MOTION_DDOT":0},{"OBJECT_NAME":"ONEWEB-0661","OBJECT_ID":"2023-029AB","EPOCH":"2026-07-19T17:45:32.803200","CLASSIFICATION_TYPE":"U","MEAN_MOTION":13.14502848,"ECCENTRICITY":0.0001838,"INCLINATION":87.8952,"RA_OF_ASC_NODE":283.2544,"ARG_OF_PERICENTER":107.7322,"MEAN_ANOMALY":252.4008,"EPHEMERIS_TYPE":0,"NORAD_CAT_ID":55821,"ELEMENT_SET_NO":999,"REV_AT_EPOCH":16366,"BSTAR":0.000060813,"MEAN_MOTION_DOT":3.5e-7,"MEAN_MOTION_DDOT":0},{"OBJECT_NAME":"ONEWEB-0662","OBJECT_ID":"2023-029AC","EPOCH":"2026-07-19T18:35:47.339808","CLASSIFICATION_TYPE":"U","MEAN_MOTION":13.14502049,"ECCENTRICITY":0.0002009,"INCLINATION":87.8957,"RA_OF_ASC_NODE":283.2527,"ARG_OF_PERICENTER":109.3847,"MEAN_ANOMALY":250.75,"EPHEMERIS_TYPE":0,"NORAD_CAT_ID":55822,"ELEMENT_SET_NO":999,"REV_AT_EPOCH":16371,"BSTAR":0.00012029,"MEAN_MOTION_DOT":5.7e-7,"MEAN_MOTION_DDOT":0},{"OBJECT_NAME":"ONEWEB-0663","OBJECT_ID":"2023-029AD","EPOCH":"2026-07-19T17:38:52.880928","CLASSIFICATION_TYPE":"U","MEAN_MOTION":13.20871676,"ECCENTRICITY":0.0002231,"INCLINATION":87.9186,"RA_OF_ASC_NODE":268.0159,"ARG_OF_PERICENTER":108.7073,"MEAN_ANOMALY":251.4302,"EPHEMERIS_TYPE":0,"NORAD_CAT_ID":55823,"ELEMENT_SET_NO":999,"REV_AT_EPOCH":16544,"BSTAR":-0.00002898,"MEAN_MOTION_DOT":1e-8,"MEAN_MOTION_DDOT":0},{"OBJECT_NAME":"ONEWEB-0664","OBJECT_ID":"2023-029AE","EPOCH":"2026-07-19T16:34:28.390368","CLASSIFICATION_TYPE":"U","MEAN_MOTION":13.20771971,"ECCENTRICITY":0.0001608,"INCLINATION":87.9168,"RA_OF_ASC_NODE":268.0021,"ARG_OF_PERICENTER":105.5356,"MEAN_ANOMALY":254.5955,"EPHEMERIS_TYPE":0,"NORAD_CAT_ID":55824,"ELEMENT_SET_NO":999,"REV_AT_EPOCH":16543,"BSTAR":0.0003013,"MEAN_MOTION_DOT":0.00000135,"MEAN_MOTION_DDOT":0},{"OBJECT_NAME":"ONEWEB-0665","OBJECT_ID":"2023-029AF","EPOCH":"2026-07-19T17:40:58.942848","CLASSIFICATION_TYPE":"U","MEAN_MOTION":13.14502477,"ECCENTRICITY":0.0002086,"INCLINATION":87.8952,"RA_OF_ASC_NODE":283.2357,"ARG_OF_PERICENTER":108.9365,"MEAN_ANOMALY":251.1991,"EPHEMERIS_TYPE":0,"NORAD_CAT_ID":55825,"ELEMENT_SET_NO":999,"REV_AT_EPOCH":16368,"BSTAR":-0.000076096,"MEAN_MOTION_DOT":-1.5e-7,"MEAN_MOTION_DDOT":0},{"OBJECT_NAME":"ONEWEB-0666","OBJECT_ID":"2023-029AG","EPOCH":"2026-07-19T16:24:44.957952","CLASSIFICATION_TYPE":"U","MEAN_MOTION":13.20770723,"ECCENTRICITY":0.0002381,"INCLINATION":87.9167,"RA_OF_ASC_NODE":267.9937,"ARG_OF_PERICENTER":81.5546,"MEAN_ANOMALY":278.5857,"EPHEMERIS_TYPE":0,"NORAD_CAT_ID":55826,"ELEMENT_SET_NO":999,"REV_AT_EPOCH":16544,"BSTAR":-0.0004413,"MEAN_MOTION_DOT":-0.00000166,"MEAN_MOTION_DDOT":0},{"OBJECT_NAME":"ONEWEB-0667","OBJECT_ID":"2023-029AH","EPOCH":"2026-07-19T16:17:28.449600","CLASSIFICATION_TYPE":"U","MEAN_MOTION":13.20771101,"ECCENTRICITY":0.0002018,"INCLINATION":87.9184,"RA_OF_ASC_NODE":267.9578,"ARG_OF_PERICENTER":103.6111,"MEAN_ANOMALY":256.5247,"EPHEMERIS_TYPE":0,"NORAD_CAT_ID":55827,"ELEMENT_SET_NO":999,"REV_AT_EPOCH":16543,"BSTAR":-0.00031863,"MEAN_MOTION_DOT":-0.00000117,"MEAN_MOTION_DDOT":0},{"OBJECT_NAME":"ONEWEB-0669","OBJECT_ID":"2023-029AJ","EPOCH":"2026-07-19T17:59:18.028608","CLASSIFICATION_TYPE":"U","MEAN_MOTION":13.20770017,"ECCENTRICITY":0.0001558,"INCLINATION":87.918,"RA_OF_ASC_NODE":267.9524,"ARG_OF_PERICENTER":88.6367,"MEAN_ANOMALY":271.4945,"EPHEMERIS_TYPE":0,"NORAD_CAT_ID":55828,"ELEMENT_SET_NO":999,"REV_AT_EPOCH":16544,"BSTAR":0.00018565,"MEAN_MOTION_DOT":8.8e-7,"MEAN_MOTION_DDOT":0},{"OBJECT_NAME":"ONEWEB-0670","OBJECT_ID":"2023-029AK","EPOCH":"2026-07-19T18:58:37.477056","CLASSIFICATION_TYPE":"U","MEAN_MOTION":13.14502099,"ECCENTRICITY":0.0001718,"INCLINATION":87.8954,"RA_OF_ASC_NODE":283.2418,"ARG_OF_PERICENTER":108.2603,"MEAN_ANOMALY":251.8714,"EPHEMERIS_TYPE":0,"NORAD_CAT_ID":55829,"ELEMENT_SET_NO":999,"REV_AT_EPOCH":16371,"BSTAR":-0.0004519,"MEAN_MOTION_DOT":-0.00000155,"MEAN_MOTION_DDOT":0},{"OBJECT_NAME":"ONEWEB-0671","OBJECT_ID":"2023-029AL","EPOCH":"2026-07-19T17:46:22.531584","CLASSIFICATION_TYPE":"U","MEAN_MOTION":13.19725444,"ECCENTRICITY":0.0001972,"INCLINATION":87.9186,"RA_OF_ASC_NODE":298.4934,"ARG_OF_PERICENTER":105.0556,"MEAN_ANOMALY":255.0795,"EPHEMERIS_TYPE":0,"NORAD_CAT_ID":55830,"ELEMENT_SET_NO":999,"REV_AT_EPOCH":16319,"BSTAR":-0.00029439,"MEAN_MOTION_DOT":-0.00000105,"MEAN_MOTION_DDOT":0},{"OBJECT_NAME":"ONEWEB-0672","OBJECT_ID":"2023-029AM","EPOCH":"2026-07-19T17:52:02.430048","CLASSIFICATION_TYPE":"U","MEAN_MOTION":13.20770702,"ECCENTRICITY":0.0002024,"INCLINATION":87.9178,"RA_OF_ASC_NODE":267.9473,"ARG_OF_PERICENTER":90.8119,"MEAN_ANOMALY":269.3246,"EPHEMERIS_TYPE":0,"NORAD_CAT_ID":55831,"ELEMENT_SET_NO":999,"REV_AT_EPOCH":16544,"BSTAR":0.00030288,"MEAN_MOTION_DOT":0.00000136,"MEAN_MOTION_DDOT":0},{"OBJECT_NAME":"ONEWEB-0673","OBJECT_ID":"2023-029AN","EPOCH":"2026-07-19T19:02:34.315008","CLASSIFICATION_TYPE":"U","MEAN_MOTION":13.19725227,"ECCENTRICITY":0.000195,"INCLINATION":87.9191,"RA_OF_ASC_NODE":298.4769,"ARG_OF_PERICENTER":104.2462,"MEAN_ANOMALY":255.8887,"EPHEMERIS_TYPE":0,"NORAD_CAT_ID":55832,"ELEMENT_SET_NO":999,"REV_AT_EPOCH":16320,"BSTAR":-0.000059227,"MEAN_MOTION_DOT":-1.1e-7,"MEAN_MOTION_DDOT":0}]}
